NORAD_CAT_ID,OBJECT_NAME,OBJECT_TYPE,EPOCH,MEAN_MOTION,ECCENTRICITY,INCLINATION,RA_OF_ASC_NODE,ARG_OF_PERICENTER,MEAN_ANOMALY,BSTAR,MEAN_MOTION_DOT,MEAN_MOTION_DDOT,TLE_LINE0,TLE_LINE1,TLE_LINE2,SEMIMAJOR_AXIS,PERIOD,APOGEE,PERIGEE,DECAYED
53258.0,STARLINK-4127,PAYLOAD,2023-11-11 13:20:44,15.0884442,0.0002073,53.2202,46.0339,104.8979,255.2243,-4.3845e-05,-9.86e-06,0.0,0 STARLINK-4127,1 53258U 22086S   23315.55607163 -.00000986  00000-0 -43845-4 0  9991,2 53258  53.2202  46.0339 0002073 104.8979 255.2243 15.08844420 72877,6917.867,95.437,541.166,538.298,0.0
53258.0,STARLINK-4127,PAYLOAD,2023-11-11 22:53:03,15.08832529,0.0001681,53.2198,44.25,99.4084,260.7099,3.8492e-05,3.24e-06,0.0,0 STARLINK-4127,1 53258U 22086S   23315.95351792  .00000324  00000-0  38492-4 0  9995,2 53258  53.2198  44.2500 0001681  99.4084 260.7099 15.08832529 72755,6917.903,95.438,540.931,538.605,0.0
53258.0,STARLINK-4127,PAYLOAD,2023-11-12 13:11:31,15.08839856,0.0001646,53.2192,41.5716,95.9101,264.2078,0.00011364,1.521e-05,0.0,0 STARLINK-4127,1 53258U 22086S   23316.54967372  .00001521  00000-0  11364-3 0  9996,2 53258  53.2192  41.5716 0001646  95.9101 264.2078 15.08839856 73027,6917.881,95.438,540.885,538.607,0.0
53258.0,STARLINK-4127,PAYLOAD,2023-11-13 11:26:55,15.08845519,0.0001613,53.219,37.408,85.9071,274.2105,0.00013479,1.858e-05,0.0,0 STARLINK-4127,1 53258U 22086S   23317.47703043  .00001858  00000-0  13479-3 0  9994,2 53258  53.2190  37.4080 0001613  85.9071 274.2105 15.08845519 73162,6917.864,95.437,540.844,538.613,0.0
53258.0,STARLINK-4127,PAYLOAD,2023-11-13 22:34:37,15.08842383,0.0001639,53.2193,35.3267,86.9622,273.1557,0.00011282,1.508e-05,0.0,0 STARLINK-4127,1 53258U 22086S   23317.94071235  .00001508  00000-0  11282-3 0  9999,2 53258  53.2193  35.3267 0001639  86.9622 273.1557 15.08842383 73233,6917.873,95.437,540.872,538.604,0.0
53258.0,STARLINK-4127,PAYLOAD,2023-11-14 12:53:05,15.08840999,0.0001544,53.2189,32.6483,101.3455,258.7711,4.1208e-05,3.68e-06,0.0,0 STARLINK-4127,1 53258U 22086S   23318.53687461  .00000368  00000-0  41208-4 0  9994,2 53258  53.2189  32.6483 0001544 101.3455 258.7711 15.08840999 73321,6917.877,95.437,540.81,538.674,0.0
53258.0,STARLINK-4127,PAYLOAD,2023-11-14 22:25:24,15.08838864,0.0001378,53.2176,30.8642,89.7868,270.3282,-8.5559e-06,-4.24e-06,0.0,0 STARLINK-4127,1 53258U 22086S   23318.93431662 -.00000424  00000-0 -85559-5 0  9991,2 53258  53.2176  30.8642 0001378  89.7868 270.3282 15.08838864 73383,6917.884,95.438,540.702,538.796,0.0
53258.0,STARLINK-4127,PAYLOAD,2023-11-15 11:08:29,15.08846253,0.0001296,53.2175,28.4853,87.8924,272.2216,8.3202e-06,-1.55e-06,0.0,0 STARLINK-4127,1 53258U 22086S   23319.46423160 -.00000155  00000-0  83202-5 0  9997,2 53258  53.2175  28.4853 0001296  87.8924 272.2216 15.08846253 73468,6917.861,95.437,540.623,538.83,0.0
53258.0,STARLINK-4127,PAYLOAD,2023-11-15 22:16:11,15.08843778,0.0001391,53.2185,26.4049,88.484,271.6311,7.5691e-05,9.17e-06,0.0,0 STARLINK-4127,1 53258U 22086S   23319.92791108  .00000917  00000-0  75691-4 0  9995,2 53258  53.2185  26.4049 0001391  88.4840 271.6311 15.08843778 73530,6917.869,95.437,540.696,538.772,0.0
53258.0,STARLINK-4127,PAYLOAD,2023-11-16 07:48:30,15.08838618,0.0001573,53.219,24.622,84.2954,275.8217,0.00011979,1.619e-05,0.0,0 STARLINK-4127,1 53258U 22086S   23320.32535424  .00001619  00000-0  11979-3 0  9996,2 53258  53.2190  24.6220 0001573  84.2954 275.8217 15.08838618 73414,6917.885,95.438,540.838,538.661,0.0
53258.0,STARLINK-4127,PAYLOAD,2023-11-16 09:23:53,15.08838118,0.000156,53.2189,24.3246,84.6314,275.4857,0.00011277,1.507e-05,0.0,0 STARLINK-4127,1 53258U 22086S   23320.39159453  .00001507  00000-0  11277-3 0  9994,2 53258  53.2189  24.3246 0001560  84.6314 275.4857 15.08838118 73609,6917.886,95.438,540.83,538.672,0.0
53258.0,STARLINK-4127,PAYLOAD,2023-11-17 10:50:04,15.08831071,0.0001434,53.2187,19.5653,94.9665,265.1491,0.00019094,2.751e-05,0.0,0 STARLINK-4127,1 53258U 22086S   23321.45143794  .00002751  00000-0  19094-3 0  9990,2 53258  53.2187  19.5653 0001434  94.9665 265.1491 15.08831071 73586,6917.908,95.438,540.765,538.781,0.0
53258.0,STARLINK-4127,PAYLOAD,2023-11-18 10:40:51,15.08839699,0.00014,53.219,15.1062,96.2785,263.8367,1.9824e-05,2.8e-07,0.0,0 STARLINK-4127,1 53258U 22086S   23322.44503651  .00000028  00000-0  19824-4 0  9999,2 53258  53.2190  15.1062 0001400  96.2785 263.8367 15.08839699 73915,6917.881,95.438,540.715,538.778,0.0
53258.0,STARLINK-4127,PAYLOAD,2023-11-18 20:13:10,15.08835158,0.0001441,53.2189,13.3233,98.1842,261.9314,1.445e-05,-5.8e-07,0.0,0 STARLINK-4127,1 53258U 22086S   23322.84247977 -.00000058  00000-0  14450-4 0  9993,2 53258  53.2189  13.3233 0001441  98.1842 261.9314 15.08835158 73976,6917.895,95.438,540.757,538.763,0.0
53258.0,STARLINK-4127,PAYLOAD,2023-11-19 04:10:05,15.08836892,0.0001365,53.2183,11.8357,97.0425,263.0722,4.5072e-05,4.29e-06,0.0,0 STARLINK-4127,1 53258U 22086S   23323.17367807  .00000429  00000-0  45072-4 0  9990,2 53258  53.2183  11.8357 0001365  97.0425 263.0722 15.08836892 73848,6917.89,95.438,540.699,538.811,0.0
53258.0,STARLINK-4127,PAYLOAD,2023-11-19 10:31:38,15.08840908,0.0001434,53.2188,10.6463,96.7759,263.3396,7.7056e-05,9.39e-06,0.0,0 STARLINK-4127,1 53258U 22086S   23323.43863549  .00000939  00000-0  77056-4 0  9996,2 53258  53.2188  10.6463 0001434  96.7759 263.3396 15.08840908 74069,6917.878,95.437,540.735,538.751,0.0
53258.0,STARLINK-4127,PAYLOAD,2023-11-19 20:03:57,15.08839191,0.0001415,53.2189,8.862,94.6245,265.4909,8.2648e-05,1.028e-05,0.0,0 STARLINK-4127,1 53258U 22086S   23323.83607650  .00001028  00000-0  82648-4 0  9992,2 53258  53.2189   8.8620 0001415  94.6245 265.4909 15.08839191 74122,6917.883,95.438,540.727,538.769,0.0
53258.0,STARLINK-4127,PAYLOAD,2023-11-20 08:47:02,15.08836758,0.0001471,53.219,6.4828,90.0726,270.0435,3.7339e-05,3.06e-06,0.0,0 STARLINK-4127,1 53258U 22086S   23324.36600070  .00000306  00000-0  37339-4 0  9995,2 53258  53.2190   6.4828 0001471  90.0726 270.0435 15.08836758 74025,6917.89,95.438,540.773,538.738,0.0
53258.0,STARLINK-4127,PAYLOAD,2023-11-20 11:57:48,15.08841767,0.0001482,53.2191,5.8876,85.6499,274.4662,7.326e-05,8.78e-06,0.0,0 STARLINK-4127,1 53258U 22086S   23324.49847670  .00000878  00000-0  73260-4 0  9995,2 53258  53.2191   5.8876 0001482  85.6499 274.4662 15.08841767 74229,6917.875,95.437,540.765,538.715,0.0
53258.0,STARLINK-4127,PAYLOAD,2023-11-20 19:54:44,15.08839323,0.0001576,53.2192,4.4012,86.4301,273.6872,6.2701e-05,7.1e-06,0.0,0 STARLINK-4127,1 53258U 22086S   23324.82967924  .00000710  00000-0  62701-4 0  9990,2 53258  53.2192   4.4012 0001576  86.4301 273.6872 15.08839323 74276,6917.882,95.438,540.838,538.657,0.0
53258.0,STARLINK-4127,PAYLOAD,2023-11-21 11:48:35,15.08847923,0.0001545,53.2188,1.426,83.7264,276.3904,6.5851e-05,7.6e-06,0.0,0 STARLINK-4127,1 53258U 22086S   23325.49207310  .00000760  00000-0  65851-4 0  9994,2 53258  53.2188   1.4260 0001545  83.7264 276.3904 15.08847923 74199,6917.856,95.437,540.79,538.652,0.0
53258.0,STARLINK-4127,PAYLOAD,2023-11-22 11:39:21,15.08851969,0.0001707,53.2198,356.9617,83.1728,276.9458,0.00012023,1.627e-05,0.0,0 STARLINK-4127,1 53258U 22086S   23326.48566779  .00001627  00000-0  12023-3 0  9996,2 53258  53.2198 356.9617 0001707  83.1728 276.9458 15.08851969 74525,6917.844,95.437,540.89,538.528,0.0
53258.0,STARLINK-4127,PAYLOAD,2023-11-23 01:57:51,15.08835199,0.0001588,53.2193,354.2876,92.6064,267.511,-2.7245e-05,-7.22e-06,0.0,0 STARLINK-4127,1 53258U 22086S   23327.08184363 -.00000722  00000-0 -27245-4 0  9998,2 53258  53.2193 354.2876 0001588  92.6064 267.5110 15.08835199 74431,6917.895,95.438,540.859,538.662,0.0
53258.0,STARLINK-4127,PAYLOAD,2023-11-23 08:19:23,15.08840345,0.0001795,53.2191,353.1007,87.9244,272.1954,-9.4435e-06,-4.38e-06,0.0,0 STARLINK-4127,1 53258U 22086S   23327.34680065 -.00000438  00000-0 -94435-5 0  9997,2 53258  53.2191 353.1007 0001795  87.9244 272.1954 15.08840345 74651,6917.879,95.438,540.986,538.503,0.0
53258.0,STARLINK-4127,PAYLOAD,2023-11-24 08:10:10,15.08842104,0.0001583,53.2186,348.6405,98.8877,261.2295,-5.0656e-05,-1.094e-05,0.0,0 STARLINK-4127,1 53258U 22086S   23328.34040342 -.00001094  00000-0 -50656-4 0  9991,2 53258  53.2186 348.6405 0001583  98.8877 261.2295 15.08842104 74623,6917.874,95.437,540.834,538.644,0.0
53258.0,STARLINK-4127,PAYLOAD,2023-11-25 08:00:57,15.0884684,0.0001761,53.2188,344.1801,102.6568,257.4621,0.00020362,2.955e-05,0.0,0 STARLINK-4127,1 53258U 22086S   23329.33399800  .00002955  00000-0  20362-3 0  9992,2 53258  53.2188 344.1801 0001761 102.6568 257.4621 15.08846840 74952,6917.859,95.437,540.943,538.506,0.0
53258.0,STARLINK-4127,PAYLOAD,2023-11-26 06:16:21,15.08856646,0.0001764,53.2179,340.0189,107.9308,252.1877,0.00031449,4.723e-05,0.0,0 STARLINK-4127,1 53258U 22086S   23330.26135463  .00004723  00000-0  31449-3 0  9992,2 53258  53.2179 340.0189 0001764 107.9308 252.1877 15.08856646 75095,6917.83,95.437,540.915,538.474,0.0
53258.0,STARLINK-4127,PAYLOAD,2023-11-27 04:31:47,15.08805661,0.0001633,53.218,335.8533,95.2714,264.8464,-0.00054563,-8.953e-05,0.0,0 STARLINK-4127,1 53258U 22086S   23331.18874166 -.00008953  00000-0 -54563-3 0  9997,2 53258  53.2180 335.8533 0001633  95.2714 264.8464 15.08805661 75056,6917.985,95.44,540.98,538.721,0.0
53258.0,STARLINK-4127,PAYLOAD,2023-11-27 09:17:56,15.08803801,0.0001651,53.2177,334.9617,92.7837,267.3344,-0.00059566,-9.746e-05,0.0,0 STARLINK-4127,1 53258U 22086S   23331.38746046 -.00009746  00000-0 -59566-3 0  9993,2 53258  53.2177 334.9617 0001651  92.7837 267.3344 15.08803801 75265,6917.991,95.44,540.998,538.714,0.0
53258.0,STARLINK-4127,PAYLOAD,2023-11-28 09:08:43,15.08854472,0.0001688,53.2167,330.5005,88.0142,272.1044,0.00061552,9.525e-05,0.0,0 STARLINK-4127,1 53258U 22086S   23332.38105336  .00009525  00000-0  61552-3 0  9996,2 53258  53.2167 330.5005 0001688  88.0142 272.1044 15.08854472 75232,6917.836,95.437,540.869,538.533,0.0
